OBJECT_NAME,OBJECT_ID,EPOCH,MEAN_MOTION,ECCENTRICITY,INCLINATION,RA_OF_ASC_NODE,ARG_OF_PERICENTER,MEAN_ANOMALY,EPHEMERIS_TYPE,CLASSIFICATION_TYPE,NORAD_CAT_ID,ELEMENT_SET_NO,REV_AT_EPOCH,BSTAR,MEAN_MOTION_DOT,MEAN_MOTION_DDOT
POLYITAN-1,2014-033AJ,2026-07-20T12:27:31.486752,15.34334872,.00074383,98.0937,230.9614,48.1858,312.0017,0,U,40042,999,65870,.34352907E-3,.11343E-3,0
TIGRISAT,2014-033AK,2026-07-20T04:41:01.192416,14.85257761,.00482244,97.7872,350.4597,327.6805,32.1457,0,U,40043,999,65052,.99037235E-4,.811E-5,0
AEROCUBE 6A,2014-033AM,2026-07-19T22:46:38.682048,14.98375370,.00361088,97.7268,7.5592,264.4849,95.2254,0,U,40045,999,65152,.29632068E-3,.3519E-4,0
AEROCUBE 6B,2014-033AN,2026-07-20T09:16:38.317440,14.99826311,.00382117,97.7208,7.8481,251.7787,107.9276,0,U,40046,999,65173,.24459845E-3,.3011E-4,0
CANX-4,2014-034C,2026-07-20T10:53:17.469888,14.81316174,.00113744,98.3075,77.9814,263.9065,96.0851,0,U,40055,999,64945,.60997136E-4,.419E-5,0
CANX-5,2014-034D,2026-07-20T10:50:28.510368,14.81333532,.001138,98.3078,78.0249,264.1725,95.8189,0,U,40056,999,64026,.61414532E-4,.422E-5,0
UKUBE-1,2014-037F,2026-07-20T11:35:01.069728,15.13998749,.00031681,98.4252,208.2664,79.2263,280.9322,0,U,40074,999,65359,.26968904E-3,.4817E-4,0
BRITE-PL2 (HEWELIUSZ),2014-049B,2026-07-20T07:27:38.695392,14.94694929,.00138292,97.9121,313.5727,5.5650,354.5721,0,U,40119,999,64639,.92665287E-4,.947E-5,0
AEROCUBE 5C,2015-058B,2026-07-20T11:52:05.415168,14.91597637,.01327502,64.7663,158.9594,50.4146,310.8601,0,U,40965,999,37062,.19603663E-3,.2156E-4,0
AEROCUBE 7,2015-058C,2026-07-20T04:39:53.787456,14.95943283,.01224085,64.7617,141.4119,48.8439,312.3159,0,U,40966,999,37089,.24415296E-3,.3005E-4,0
FOX-1A (AO-85),2015-058D,2026-07-20T06:49:54.830496,14.91108157,.01327836,64.7727,176.1140,43.8857,317.2710,0,U,40967,999,11850,.1792955E-3,.1929E-4,0
SINOD-D 1,2015-058E,2026-07-20T07:15:02.731680,14.96119091,.01214895,64.7742,155.1914,40.2216,320.7809,0,U,40968,999,12161,.25651421E-3,.3176E-4,0
SNAP-3 ALICE,2015-058G,2026-07-19T20:13:47.659872,15.68116452,.00256958,64.7501,350.3405,345.4772,14.5636,0,U,40970,999,12199,.83269657E-3,.95788E-3,0
LMRST-SAT,2015-058H,2026-07-20T07:34:24.890304,14.90722607,.0134311,64.7735,172.4195,45.8734,315.3331,0,U,40971,999,11849,.17278275E-3,.1839E-4,0
SNAP-3 EDDIE,2015-058J,2026-07-20T09:06:45.266976,15.69708234,.00270092,64.7407,338.9282,347.6349,12.4135,0,U,40972,999,12422,.89701462E-3,.110666E-2,0
PROPCUBE 3,2015-058K,2026-07-20T06:27:48.475584,14.94441789,.01261836,64.7679,149.1590,47.0717,314.0900,0,U,40973,999,11974,.22189079E-3,.2626E-4,0
BISONSAT,2015-058L,2026-07-20T01:39:34.041600,15.17008188,.00825214,64.7580,67.2584,33.7919,326.8425,0,U,40974,999,12060,.35493567E-3,.7486E-4,0
SNAP-3 JIMI,2015-058M,2026-07-20T03:17:10.192992,15.02651100,.01082228,64.7643,115.4924,42.4177,318.5241,0,U,40975,999,11917,.2933415E-3,.4266E-4,0
PROPCUBE 1 (FLORA),2015-058N,2026-07-20T08:50:05.148960,14.89344959,.01328677,64.7718,192.3876,48.1240,313.1117,0,U,40976,999,12120,.1590175E-3,.1607E-4,0
SINOD-D 3,2015-058P,2026-07-20T08:57:26.859456,14.94200012,.01214837,64.7711,172.1729,45.1505,315.9399,0,U,40977,999,11971,.23180598E-3,.2701E-4,0
RAVAN,2016-067B,2026-07-20T05:17:15.001728,15.57823305,.00028888,97.9827,94.6874,193.5482,166.5694,0,U,41849,999,53283,.45835135E-3,.34088E-3,0
CELTEE 1,2016-067C,2026-07-19T14:23:06.146880,15.19964565,.0002435,98.0629,69.3765,104.1559,255.9945,0,U,41850,999,53080,.12003E-3,.2504E-4,0
OPTICUBE 04,2016-067D,2026-07-20T10:00:44.065152,15.09784034,.001576,98.0671,55.4321,10.9128,349.2439,0,U,41851,999,53018,.78858148E-4,.1205E-4,0
AEROCUBE 8D,2016-067E,2026-07-20T04:02:13.248960,15.24809314,.00042771,98.0634,73.8507,44.1254,316.0323,0,U,41852,999,53109,.15742547E-3,.3824E-4,0
AEROCUBE 8C,2016-067F,2026-07-20T10:48:15.725664,15.25065573,.00038721,98.0509,71.3397,320.3189,39.7763,0,U,41853,999,53113,.16796146E-3,.4117E-4,0
CORVUS BC2,2017-042X,2026-07-20T09:46:58.622016,15.06471526,.00129062,97.4096,1.4757,5.0892,355.0465,0,U,42846,999,49206,.11409848E-3,.1627E-4,0
CORVUS BC1,2017-042Y,2026-07-20T07:58:19.537248,15.06637295,.00111422,97.4129,2.2388,341.5918,18.4905,0,U,42847,999,49208,.14078921E-3,.203E-4,0
MAKERSAT 0,2017-073D,2026-07-20T11:27:49.602816,15.33132517,.01057163,97.4572,84.2716,153.5455,207.1240,0,U,43016,999,47156,.33826306E-3,.12875E-3,0
SIRION PATHFINDER-2,2018-099B,2026-07-20T01:56:18.057120,15.14800599,.00089975,97.4233,249.3587,174.6217,185.5114,0,U,43759,999,41760,.15057646E-3,.2733E-4,0
CORVUS BC4,2018-099K,2026-07-20T01:35:08.717568,15.12722668,.00067645,97.4049,243.0855,239.8830,120.1731,0,U,43767,999,41737,.14702488E-3,.2513E-4,0
